CCSDS_OMM_VERS = 2.0
CREATION_DATE  = 
ORIGINATOR     = 

OBJECT_NAME    = UNKNOWN
OBJECT_ID      = 
CENTER_NAME    = EARTH
REF_FRAME      = TEME
TIME_SYSTEM    = UTC
MEAN_ELEMENT_THEORY = SGP/SGP4

EPOCH          = 2026-03-19T12:20:59.610912
MEAN_MOTION    = 12.92709108
ECCENTRICITY   = .00277829
INCLINATION    = 90.2507
RA_OF_ASC_NODE = 5.0107
ARG_OF_PERICENTER = 159.7999
MEAN_ANOMALY   = 200.4225

EPHEMERIS_TYPE = 0
CLASSIFICATION_TYPE = U
NORAD_CAT_ID   = 270306
ELEMENT_SET_NO = 999
REV_AT_EPOCH   = 25303
BSTAR          = .16529109E-3
MEAN_MOTION_DOT = .52E-6
MEAN_MOTION_DDOT = 0

CCSDS_OMM_VERS = 2.0
CREATION_DATE  = 
ORIGINATOR     = 

OBJECT_NAME    = UNKNOWN
OBJECT_ID      = 
CENTER_NAME    = EARTH
REF_FRAME      = TEME
TIME_SYSTEM    = UTC
MEAN_ELEMENT_THEORY = SGP/SGP4

EPOCH          = 2026-03-27T20:42:51.312096
MEAN_MOTION    = 13.67341240
ECCENTRICITY   = .00378182
INCLINATION    = 82.6968
RA_OF_ASC_NODE = 140.2610
ARG_OF_PERICENTER = 327.0025
MEAN_ANOMALY   = 32.8766

EPHEMERIS_TYPE = 0
CLASSIFICATION_TYPE = U
NORAD_CAT_ID   = 270307
ELEMENT_SET_NO = 999
REV_AT_EPOCH   = 29126
BSTAR          = .7115067E-2
MEAN_MOTION_DOT = .6024E-4
MEAN_MOTION_DDOT = 0

CCSDS_OMM_VERS = 2.0
CREATION_DATE  = 
ORIGINATOR     = 

OBJECT_NAME    = UNKNOWN
OBJECT_ID      = 
CENTER_NAME    = EARTH
REF_FRAME      = TEME
TIME_SYSTEM    = UTC
MEAN_ELEMENT_THEORY = SGP/SGP4

EPOCH          = 2026-03-28T18:41:58.605792
MEAN_MOTION    = 12.99714730
ECCENTRICITY   = .02148701
INCLINATION    = 82.5753
RA_OF_ASC_NODE = 266.8170
ARG_OF_PERICENTER = 359.1856
MEAN_ANOMALY   = 0.8876

EPHEMERIS_TYPE = 0
CLASSIFICATION_TYPE = U
NORAD_CAT_ID   = 270308
ELEMENT_SET_NO = 999
REV_AT_EPOCH   = 28673
BSTAR          = .11532219E-1
MEAN_MOTION_DOT = .3859E-4
MEAN_MOTION_DDOT = 0

CCSDS_OMM_VERS = 2.0
CREATION_DATE  = 
ORIGINATOR     = 

OBJECT_NAME    = UNKNOWN
OBJECT_ID      = 
CENTER_NAME    = EARTH
REF_FRAME      = TEME
TIME_SYSTEM    = UTC
MEAN_ELEMENT_THEORY = SGP/SGP4

EPOCH          = 2026-03-28T04:59:17.030400
MEAN_MOTION    = 14.94314835
ECCENTRICITY   = .0034956
INCLINATION    = 98.4018
RA_OF_ASC_NODE = 76.6023
ARG_OF_PERICENTER = 327.7219
MEAN_ANOMALY   = 32.1859

EPHEMERIS_TYPE = 0
CLASSIFICATION_TYPE = U
NORAD_CAT_ID   = 270309
ELEMENT_SET_NO = 999
REV_AT_EPOCH   = 28358
BSTAR          = .54639878E-3
MEAN_MOTION_DOT = .5877E-4
MEAN_MOTION_DDOT = 0

CCSDS_OMM_VERS = 2.0
CREATION_DATE  = 
ORIGINATOR     = 

OBJECT_NAME    = UNKNOWN
OBJECT_ID      = 
CENTER_NAME    = EARTH
REF_FRAME      = TEME
TIME_SYSTEM    = UTC
MEAN_ELEMENT_THEORY = SGP/SGP4

EPOCH          = 2026-03-28T15:12:35.726112
MEAN_MOTION    = 13.48521582
ECCENTRICITY   = .01906675
INCLINATION    = 82.9406
RA_OF_ASC_NODE = 224.4934
ARG_OF_PERICENTER = 320.5603
MEAN_ANOMALY   = 38.1785

EPHEMERIS_TYPE = 0
CLASSIFICATION_TYPE = U
NORAD_CAT_ID   = 270310
ELEMENT_SET_NO = 999
REV_AT_EPOCH   = 24575
BSTAR          = .10197601E-2
MEAN_MOTION_DOT = .72E-5
MEAN_MOTION_DDOT = 0

CCSDS_OMM_VERS = 2.0
CREATION_DATE  = 
ORIGINATOR     = 

OBJECT_NAME    = UNKNOWN
OBJECT_ID      = 
CENTER_NAME    = EARTH
REF_FRAME      = TEME
TIME_SYSTEM    = UTC
MEAN_ELEMENT_THEORY = SGP/SGP4

EPOCH          = 2026-03-25T22:49:49.851552
MEAN_MOTION    = 14.53118718
ECCENTRICITY   = .00188428
INCLINATION    = 98.8084
RA_OF_ASC_NODE = 80.1240
ARG_OF_PERICENTER = 216.8188
MEAN_ANOMALY   = 143.1714

EPHEMERIS_TYPE = 0
CLASSIFICATION_TYPE = U
NORAD_CAT_ID   = 270311
ELEMENT_SET_NO = 999
REV_AT_EPOCH   = 26094
BSTAR          = .16276542E-2
MEAN_MOTION_DOT = .6704E-4
MEAN_MOTION_DDOT = 0

CCSDS_OMM_VERS = 2.0
CREATION_DATE  = 
ORIGINATOR     = 

OBJECT_NAME    = UNKNOWN
OBJECT_ID      = 
CENTER_NAME    = EARTH
REF_FRAME      = TEME
TIME_SYSTEM    = UTC
MEAN_ELEMENT_THEORY = SGP/SGP4

EPOCH          = 2026-03-21T17:36:57.606048
MEAN_MOTION    = 14.18360380
ECCENTRICITY   = .00288616
INCLINATION    = 98.4528
RA_OF_ASC_NODE = 82.6460
ARG_OF_PERICENTER = 205.6306
MEAN_ANOMALY   = 154.3441

EPHEMERIS_TYPE = 0
CLASSIFICATION_TYPE = U
NORAD_CAT_ID   = 270312
ELEMENT_SET_NO = 999
REV_AT_EPOCH   = 32667
BSTAR          = .24147269E-3
MEAN_MOTION_DOT = .459E-5
MEAN_MOTION_DDOT = 0

CCSDS_OMM_VERS = 2.0
CREATION_DATE  = 
ORIGINATOR     = 

OBJECT_NAME    = UNKNOWN
OBJECT_ID      = 
CENTER_NAME    = EARTH
REF_FRAME      = TEME
TIME_SYSTEM    = UTC
MEAN_ELEMENT_THEORY = SGP/SGP4

EPOCH          = 2026-03-28T01:04:38.477856
MEAN_MOTION    = 12.95236324
ECCENTRICITY   = .00291149
INCLINATION    = 90.2541
RA_OF_ASC_NODE = 9.3739
ARG_OF_PERICENTER = 58.2651
MEAN_ANOMALY   = 302.1300

EPHEMERIS_TYPE = 0
CLASSIFICATION_TYPE = U
NORAD_CAT_ID   = 270313
ELEMENT_SET_NO = 999
REV_AT_EPOCH   = 29456
BSTAR          = .13568612E-3
MEAN_MOTION_DOT = .46E-6
MEAN_MOTION_DDOT = 0

CCSDS_OMM_VERS = 2.0
CREATION_DATE  = 
ORIGINATOR     = 

OBJECT_NAME    = UNKNOWN
OBJECT_ID      = 
CENTER_NAME    = EARTH
REF_FRAME      = TEME
TIME_SYSTEM    = UTC
MEAN_ELEMENT_THEORY = SGP/SGP4

EPOCH          = 2026-03-28T01:24:06.343200
MEAN_MOTION    = 12.94818207
ECCENTRICITY   = .00278455
INCLINATION    = 90.2503
RA_OF_ASC_NODE = 5.2068
ARG_OF_PERICENTER = 110.7811
MEAN_ANOMALY   = 249.6296

EPHEMERIS_TYPE = 0
CLASSIFICATION_TYPE = U
NORAD_CAT_ID   = 270314
ELEMENT_SET_NO = 999
REV_AT_EPOCH   = 28212
BSTAR          = .29948439E-2
MEAN_MOTION_DOT = .846E-5
MEAN_MOTION_DDOT = 0

CCSDS_OMM_VERS = 2.0
CREATION_DATE  = 
ORIGINATOR     = 

OBJECT_NAME    = UNKNOWN
OBJECT_ID      = 
CENTER_NAME    = EARTH
REF_FRAME      = TEME
TIME_SYSTEM    = UTC
MEAN_ELEMENT_THEORY = SGP/SGP4

EPOCH          = 2026-03-14T09:43:12.935712
MEAN_MOTION    = 14.11296046
ECCENTRICITY   = .02714218
INCLINATION    = 97.6772
RA_OF_ASC_NODE = 300.3260
ARG_OF_PERICENTER = 105.5412
MEAN_ANOMALY   = 257.5902

EPHEMERIS_TYPE = 0
CLASSIFICATION_TYPE = U
NORAD_CAT_ID   = 270315
ELEMENT_SET_NO = 999
REV_AT_EPOCH   = 29685
BSTAR          = .14505819E-2
MEAN_MOTION_DOT = .3672E-4
MEAN_MOTION_DDOT = 0

CCSDS_OMM_VERS = 2.0
CREATION_DATE  = 
ORIGINATOR     = 

OBJECT_NAME    = UNKNOWN
OBJECT_ID      = 
CENTER_NAME    = EARTH
REF_FRAME      = TEME
TIME_SYSTEM    = UTC
MEAN_ELEMENT_THEORY = SGP/SGP4

EPOCH          = 2026-03-23T20:35:02.173920
MEAN_MOTION    = 14.21365819
ECCENTRICITY   = .00083982
INCLINATION    = 81.2067
RA_OF_ASC_NODE = 296.2898
ARG_OF_PERICENTER = 355.9971
MEAN_ANOMALY   = 4.1138

EPHEMERIS_TYPE = 0
CLASSIFICATION_TYPE = U
NORAD_CAT_ID   = 270316
ELEMENT_SET_NO = 999
REV_AT_EPOCH   = 27846
BSTAR          = .19315158E-2
MEAN_MOTION_DOT = .4229E-4
MEAN_MOTION_DDOT = 0

CCSDS_OMM_VERS = 2.0
CREATION_DATE  = 
ORIGINATOR     = 

OBJECT_NAME    = UNKNOWN
OBJECT_ID      = 
CENTER_NAME    = EARTH
REF_FRAME      = TEME
TIME_SYSTEM    = UTC
MEAN_ELEMENT_THEORY = SGP/SGP4

EPOCH          = 2026-03-23T12:50:44.413728
MEAN_MOTION    = 12.93360819
ECCENTRICITY   = .00239338
INCLINATION    = 90.2524
RA_OF_ASC_NODE = 5.4536
ARG_OF_PERICENTER = 123.5690
MEAN_ANOMALY   = 236.7718

EPHEMERIS_TYPE = 0
CLASSIFICATION_TYPE = U
NORAD_CAT_ID   = 270317
ELEMENT_SET_NO = 999
REV_AT_EPOCH   = 8372
BSTAR          = .10636805E-2
MEAN_MOTION_DOT = .299E-5
MEAN_MOTION_DDOT = 0

CCSDS_OMM_VERS = 2.0
CREATION_DATE  = 
ORIGINATOR     = 

OBJECT_NAME    = UNKNOWN
OBJECT_ID      = 
CENTER_NAME    = EARTH
REF_FRAME      = TEME
TIME_SYSTEM    = UTC
MEAN_ELEMENT_THEORY = SGP/SGP4

EPOCH          = 2026-03-24T03:31:54.115968
MEAN_MOTION    = 12.53616205
ECCENTRICITY   = .05037831
INCLINATION    = 102.9972
RA_OF_ASC_NODE = 241.3676
ARG_OF_PERICENTER = 141.2651
MEAN_ANOMALY   = 222.5685

EPHEMERIS_TYPE = 0
CLASSIFICATION_TYPE = U
NORAD_CAT_ID   = 270319
ELEMENT_SET_NO = 999
REV_AT_EPOCH   = 7503
BSTAR          = .17440374E-1
MEAN_MOTION_DOT = .4402E-4
MEAN_MOTION_DDOT = 0

CCSDS_OMM_VERS = 2.0
CREATION_DATE  = 
ORIGINATOR     = 

OBJECT_NAME    = UNKNOWN
OBJECT_ID      = 
CENTER_NAME    = EARTH
REF_FRAME      = TEME
TIME_SYSTEM    = UTC
MEAN_ELEMENT_THEORY = SGP/SGP4

EPOCH          = 2026-03-23T01:37:45.805728
MEAN_MOTION    = 12.99524229
ECCENTRICITY   = .00245743
INCLINATION    = 90.2454
RA_OF_ASC_NODE = 3.3827
ARG_OF_PERICENTER = 189.9354
MEAN_ANOMALY   = 170.1285

EPHEMERIS_TYPE = 0
CLASSIFICATION_TYPE = U
NORAD_CAT_ID   = 270320
ELEMENT_SET_NO = 999
REV_AT_EPOCH   = 23344
BSTAR          = .23927143E-2
MEAN_MOTION_DOT = .723E-5
MEAN_MOTION_DDOT = 0

CCSDS_OMM_VERS = 2.0
CREATION_DATE  = 
ORIGINATOR     = 

OBJECT_NAME    = UNKNOWN
OBJECT_ID      = 
CENTER_NAME    = EARTH
REF_FRAME      = TEME
TIME_SYSTEM    = UTC
MEAN_ELEMENT_THEORY = SGP/SGP4

EPOCH          = 2026-03-24T11:42:08.622720
MEAN_MOTION    = 12.92685383
ECCENTRICITY   = .00302427
INCLINATION    = 90.2523
RA_OF_ASC_NODE = 4.8931
ARG_OF_PERICENTER = 142.7934
MEAN_ANOMALY   = 217.5288

EPHEMERIS_TYPE = 0
CLASSIFICATION_TYPE = U
NORAD_CAT_ID   = 270321
ELEMENT_SET_NO = 999
REV_AT_EPOCH   = 25510
BSTAR          = .3888546E-3
MEAN_MOTION_DOT = .113E-5
MEAN_MOTION_DDOT = 0

CCSDS_OMM_VERS = 2.0
CREATION_DATE  = 
ORIGINATOR     = 

OBJECT_NAME    = UNKNOWN
OBJECT_ID      = 
CENTER_NAME    = EARTH
REF_FRAME      = TEME
TIME_SYSTEM    = UTC
MEAN_ELEMENT_THEORY = SGP/SGP4

EPOCH          = 2026-03-27T12:30:40.958496
MEAN_MOTION    = 12.93162844
ECCENTRICITY   = .00313634
INCLINATION    = 90.2479
RA_OF_ASC_NODE = 4.6805
ARG_OF_PERICENTER = 128.2692
MEAN_ANOMALY   = 232.1255

EPHEMERIS_TYPE = 0
CLASSIFICATION_TYPE = U
NORAD_CAT_ID   = 270322
ELEMENT_SET_NO = 999
REV_AT_EPOCH   = 23155
BSTAR          = .10888696E-2
MEAN_MOTION_DOT = .306E-5
MEAN_MOTION_DDOT = 0

